[{"OBJECT_NAME":"STARLINK-35875","OBJECT_ID":"2025-299K","EPOCH":"2026-02-12T03:45:22.872672","MEAN_MOTION":15.40755894,"ECCENTRICITY":0.0001551,"INCLINATION":42.9888,"RA_OF_ASC_NODE":315.6007,"ARG_OF_PERICENTER":314.5947,"MEAN_ANOMALY":45.4782,"EPHEMERIS_TYPE":0,"CLASSIFICATION_TYPE":"U","NORAD_CAT_ID":67111,"ELEMENT_SET_NO":999,"REV_AT_EPOCH":918,"BSTAR":0.001439938,"MEAN_MOTION_DOT":0.00060437,"MEAN_MOTION_DDOT":0},{"OBJECT_NAME":"STARLINK-35906","OBJECT_ID":"2025-299L","EPOCH":"2026-02-12T01:52:37.983360","MEAN_MOTION":15.4076226,"ECCENTRICITY":0.00075812,"INCLINATION":43.002,"RA_OF_ASC_NODE":315.8525,"ARG_OF_PERICENTER":234.0292,"MEAN_ANOMALY":125.9862,"EPHEMERIS_TYPE":0,"CLASSIFICATION_TYPE":"U","NORAD_CAT_ID":67112,"ELEMENT_SET_NO":999,"REV_AT_EPOCH":917,"BSTAR":0.0013340083,"MEAN_MOTION_DOT":0.00055995,"MEAN_MOTION_DDOT":0},{"OBJECT_NAME":"STARLINK-35789","OBJECT_ID":"2025-299M","EPOCH":"2026-02-12T04:04:43.803552","MEAN_MOTION":15.40674808,"ECCENTRICITY":0.00019176,"INCLINATION":43.0015,"RA_OF_ASC_NODE":315.6875,"ARG_OF_PERICENTER":247.7201,"MEAN_ANOMALY":112.3453,"EPHEMERIS_TYPE":0,"CLASSIFICATION_TYPE":"U","NORAD_CAT_ID":67113,"ELEMENT_SET_NO":999,"REV_AT_EPOCH":918,"BSTAR":0.0014372612,"MEAN_MOTION_DOT":0.0006016,"MEAN_MOTION_DDOT":0},{"OBJECT_NAME":"STARLINK-36180","OBJECT_ID":"2025-299N","EPOCH":"2026-02-12T03:19:32.649312","MEAN_MOTION":15.40684366,"ECCENTRICITY":0.00045167,"INCLINATION":43.012,"RA_OF_ASC_NODE":315.4327,"ARG_OF_PERICENTER":244.9305,"MEAN_ANOMALY":115.1083,"EPHEMERIS_TYPE":0,"CLASSIFICATION_TYPE":"U","NORAD_CAT_ID":67114,"ELEMENT_SET_NO":999,"REV_AT_EPOCH":918,"BSTAR":0.0013268521,"MEAN_MOTION_DOT":0.00055511,"MEAN_MOTION_DDOT":0},{"OBJECT_NAME":"STARLINK-35892","OBJECT_ID":"2025-299P","EPOCH":"2026-02-12T02:53:55.461984","MEAN_MOTION":15.40762541,"ECCENTRICITY":0.00075755,"INCLINATION":43.0002,"RA_OF_ASC_NODE":316.1826,"ARG_OF_PERICENTER":241.6295,"MEAN_ANOMALY":118.3799,"EPHEMERIS_TYPE":0,"CLASSIFICATION_TYPE":"U","NORAD_CAT_ID":67115,"ELEMENT_SET_NO":999,"REV_AT_EPOCH":917,"BSTAR":0.0015996269,"MEAN_MOTION_DOT":0.00067305,"MEAN_MOTION_DDOT":0},{"OBJECT_NAME":"STARLINK-35738","OBJECT_ID":"2025-299Q","EPOCH":"2026-02-12T02:44:17.330208","MEAN_MOTION":15.40761329,"ECCENTRICITY":8.583e-5,"INCLINATION":42.9982,"RA_OF_ASC_NODE":316.1325,"ARG_OF_PERICENTER":315.6161,"MEAN_ANOMALY":44.4626,"EPHEMERIS_TYPE":0,"CLASSIFICATION_TYPE":"U","NORAD_CAT_ID":67116,"ELEMENT_SET_NO":999,"REV_AT_EPOCH":917,"BSTAR":0.0019874226,"MEAN_MOTION_DOT":0.00083803,"MEAN_MOTION_DDOT":0},{"OBJECT_NAME":"STARLINK-35674","OBJECT_ID":"2025-299R","EPOCH":"2026-02-12T04:40:13.169568","MEAN_MOTION":15.40700883,"ECCENTRICITY":9.067e-5,"INCLINATION":42.9989,"RA_OF_ASC_NODE":315.8777,"ARG_OF_PERICENTER":314.2246,"MEAN_ANOMALY":45.8536,"EPHEMERIS_TYPE":0,"CLASSIFICATION_TYPE":"U","NORAD_CAT_ID":67117,"ELEMENT_SET_NO":999,"REV_AT_EPOCH":918,"BSTAR":0.0012914114,"MEAN_MOTION_DOT":0.00054026,"MEAN_MOTION_DDOT":0},{"OBJECT_NAME":"STARLINK-35701","OBJECT_ID":"2025-299S","EPOCH":"2026-02-12T03:42:08.473536","MEAN_MOTION":15.40686726,"ECCENTRICITY":0.000229,"INCLINATION":43.0018,"RA_OF_ASC_NODE":315.5643,"ARG_OF_PERICENTER":264.1267,"MEAN_ANOMALY":95.9329,"EPHEMERIS_TYPE":0,"CLASSIFICATION_TYPE":"U","NORAD_CAT_ID":67118,"ELEMENT_SET_NO":999,"REV_AT_EPOCH":918,"BSTAR":0.0010598624,"MEAN_MOTION_DOT":0.00044208,"MEAN_MOTION_DDOT":0},{"OBJECT_NAME":"STARLINK-36179","OBJECT_ID":"2025-299T","EPOCH":"2026-02-11T20:50:12.837696","MEAN_MOTION":15.40746357,"ECCENTRICITY":0.0001155,"INCLINATION":42.9994,"RA_OF_ASC_NODE":317.7299,"ARG_OF_PERICENTER":284.4124,"MEAN_ANOMALY":75.6604,"EPHEMERIS_TYPE":0,"CLASSIFICATION_TYPE":"U","NORAD_CAT_ID":67119,"ELEMENT_SET_NO":999,"REV_AT_EPOCH":913,"BSTAR":0.00090876,"MEAN_MOTION_DOT":0.00037904,"MEAN_MOTION_DDOT":0},{"OBJECT_NAME":"STARLINK-36217","OBJECT_ID":"2025-299U","EPOCH":"2026-02-12T03:29:15.520992","MEAN_MOTION":15.40748781,"ECCENTRICITY":0.00019124,"INCLINATION":43.0017,"RA_OF_ASC_NODE":315.4953,"ARG_OF_PERICENTER":227.241,"MEAN_ANOMALY":132.8286,"EPHEMERIS_TYPE":0,"CLASSIFICATION_TYPE":"U","NORAD_CAT_ID":67120,"ELEMENT_SET_NO":999,"REV_AT_EPOCH":918,"BSTAR":0.0018777029,"MEAN_MOTION_DOT":0.00079079,"MEAN_MOTION_DDOT":0},{"OBJECT_NAME":"STARLINK-36124","OBJECT_ID":"2025-299V","EPOCH":"2026-02-12T04:01:29.709408","MEAN_MOTION":15.40676837,"ECCENTRICITY":0.00038936,"INCLINATION":43.0044,"RA_OF_ASC_NODE":315.6644,"ARG_OF_PERICENTER":235.072,"MEAN_ANOMALY":124.9771,"EPHEMERIS_TYPE":0,"CLASSIFICATION_TYPE":"U","NORAD_CAT_ID":67121,"ELEMENT_SET_NO":999,"REV_AT_EPOCH":918,"BSTAR":0.0011422795,"MEAN_MOTION_DOT":0.00047682,"MEAN_MOTION_DDOT":0},{"OBJECT_NAME":"STARLINK-36188","OBJECT_ID":"2025-299W","EPOCH":"2026-02-12T02:34:37.469568","MEAN_MOTION":15.40745888,"ECCENTRICITY":0.00027148,"INCLINATION":42.9989,"RA_OF_ASC_NODE":316.0799,"ARG_OF_PERICENTER":23.5556,"MEAN_ANOMALY":336.5425,"EPHEMERIS_TYPE":0,"CLASSIFICATION_TYPE":"U","NORAD_CAT_ID":67122,"ELEMENT_SET_NO":999,"REV_AT_EPOCH":917,"BSTAR":0.001547772,"MEAN_MOTION_DOT":0.00065007,"MEAN_MOTION_DDOT":0},{"OBJECT_NAME":"STARLINK-36151","OBJECT_ID":"2025-299X","EPOCH":"2026-02-10T22:56:49.494624","MEAN_MOTION":15.40724387,"ECCENTRICITY":0.00017331,"INCLINATION":43.002,"RA_OF_ASC_NODE":322.9231,"ARG_OF_PERICENTER":260.5073,"MEAN_ANOMALY":99.5588,"EPHEMERIS_TYPE":0,"CLASSIFICATION_TYPE":"U","NORAD_CAT_ID":67123,"ELEMENT_SET_NO":999,"REV_AT_EPOCH":899,"BSTAR":0.0011142177,"MEAN_MOTION_DOT":0.00046563,"MEAN_MOTION_DDOT":0},{"OBJECT_NAME":"STARLINK-36195","OBJECT_ID":"2025-299Y","EPOCH":"2026-02-12T04:14:24.275904","MEAN_MOTION":15.40749163,"ECCENTRICITY":0.00021562,"INCLINATION":42.9934,"RA_OF_ASC_NODE":315.7462,"ARG_OF_PERICENTER":249.3137,"MEAN_ANOMALY":110.7488,"EPHEMERIS_TYPE":0,"CLASSIFICATION_TYPE":"U","NORAD_CAT_ID":67124,"ELEMENT_SET_NO":999,"REV_AT_EPOCH":918,"BSTAR":0.0012985004,"MEAN_MOTION_DOT":0.00054417,"MEAN_MOTION_DDOT":0},{"OBJECT_NAME":"STARLINK-36219","OBJECT_ID":"2025-299Z","EPOCH":"2026-02-12T02:21:39.504960","MEAN_MOTION":15.4074404,"ECCENTRICITY":0.00080332,"INCLINATION":43.0079,"RA_OF_ASC_NODE":315.9993,"ARG_OF_PERICENTER":236.5682,"MEAN_ANOMALY":123.4407,"EPHEMERIS_TYPE":0,"CLASSIFICATION_TYPE":"U","NORAD_CAT_ID":67125,"ELEMENT_SET_NO":999,"REV_AT_EPOCH":917,"BSTAR":0.0011214659,"MEAN_MOTION_DOT":0.00046946,"MEAN_MOTION_DDOT":0},{"OBJECT_NAME":"STARLINK-36223","OBJECT_ID":"2025-299AA","EPOCH":"2026-02-12T02:15:13.672800","MEAN_MOTION":15.40752924,"ECCENTRICITY":0.00052215,"INCLINATION":43.0036,"RA_OF_ASC_NODE":315.9703,"ARG_OF_PERICENTER":238.8984,"MEAN_ANOMALY":121.1361,"EPHEMERIS_TYPE":0,"CLASSIFICATION_TYPE":"U","NORAD_CAT_ID":67126,"ELEMENT_SET_NO":999,"REV_AT_EPOCH":917,"BSTAR":0.0012733418,"MEAN_MOTION_DOT":0.00053373,"MEAN_MOTION_DDOT":0}]
