STARLINK-35875          
1 67111U 25299K   26043.15651473  .00060437  00000+0  14399-2 0  9997
2 67111  42.9888 315.6007 0001551 314.5947  45.4782 15.40755894  9180
STARLINK-35906          
1 67112U 25299L   26043.07821740  .00055995  00000+0  13340-2 0  9993
2 67112  43.0020 315.8525 0007581 234.0292 125.9862 15.40762260  9173
STARLINK-35789          
1 67113U 25299M   26043.16995143  .00060160  00000+0  14373-2 0  9990
2 67113  43.0015 315.6875 0001917 247.7201 112.3453 15.40674808  9189
STARLINK-36180          
1 67114U 25299N   26043.13857233  .00055511  00000+0  13269-2 0  9992
2 67114  43.0120 315.4327 0004516 244.9305 115.1083 15.40684366  9189
STARLINK-35892          
1 67115U 25299P   26043.12078081  .00067305  00000+0  15996-2 0  9991
2 67115  43.0002 316.1826 0007575 241.6295 118.3799 15.40762541  9171
STARLINK-35738          
1 67116U 25299Q   26043.11408947  .00083803  00000+0  19874-2 0  9999
2 67116  42.9982 316.1325 0000858 315.6161  44.4626 15.40761329  9173
STARLINK-35674          
1 67117U 25299R   26043.19459687  .00054026  00000+0  12914-2 0  9998
2 67117  42.9989 315.8777 0000906 314.2246  45.8536 15.40700883  9185
STARLINK-35701          
1 67118U 25299S   26043.15426474  .00044208  00000+0  10599-2 0  9991
2 67118  43.0018 315.5643 0002290 264.1267  95.9329 15.40686726  9189
STARLINK-36179          
1 67119U 25299T   26042.86820414  .00037904  00000+0  90876-3 0  9993
2 67119  42.9994 317.7299 0001155 284.4124  75.6604 15.40746357  9131
STARLINK-36217          
1 67120U 25299U   26043.14531853  .00079079  00000+0  18777-2 0  9991
2 67120  43.0017 315.4953 0001912 227.2410 132.8286 15.40748781  9187
STARLINK-36124          
1 67121U 25299V   26043.16770497  .00047682  00000+0  11423-2 0  9999
2 67121  43.0044 315.6644 0003893 235.0720 124.9771 15.40676837  9181
STARLINK-36188          
1 67122U 25299W   26043.10737812  .00065007  00000+0  15478-2 0  9993
2 67122  42.9989 316.0799 0002714  23.5556 336.5425 15.40745888  9171
STARLINK-36151          
1 67123U 25299X   26041.95612841  .00046563  00000+0  11142-2 0  9999
2 67123  43.0020 322.9231 0001733 260.5073  99.5588 15.40724387  8990
STARLINK-36195          
1 67124U 25299Y   26043.17666986  .00054417  00000+0  12985-2 0  9998
2 67124  42.9934 315.7462 0002156 249.3137 110.7488 15.40749163  9181
STARLINK-36219          
1 67125U 25299Z   26043.09837390  .00046946  00000+0  11215-2 0  9992
2 67125  43.0079 315.9993 0008033 236.5682 123.4407 15.40744040  9178
STARLINK-36223          
1 67126U 25299AA  26043.09390825  .00053373  00000+0  12733-2 0  9998
2 67126  43.0036 315.9703 0005221 238.8984 121.1361 15.40752924  9171
